{
    "links": {
        "self": "http://www.neowsapp.com/rest/v1/neo/3873328?api_key=iIulBulltgU6a56xZRHN4H3l9WmuAYTsLGpBGhQ2"
    },
    "id": "3873328",
    "neo_reference_id": "3873328",
    "name": "(2019 TC1)",
    "designation": "2019 TC1",
    "nasa_jpl_url": "http://ssd.jpl.nasa.gov/sbdb.cgi?sstr=3873328",
    "absolute_magnitude_h": 27.4,
    "estimated_diameter": {
        "kilometers": {
            "estimated_diameter_min": 0.0088014652,
            "estimated_diameter_max": 0.0196806745
        },
        "meters": {
            "estimated_diameter_min": 8.801465209,
            "estimated_diameter_max": 19.6806745089
        },
        "miles": {
            "estimated_diameter_min": 0.0054689752,
            "estimated_diameter_max": 0.0122290004
        },
        "feet": {
            "estimated_diameter_min": 28.8761991163,
            "estimated_diameter_max": 64.5691441559
        }
    },
    "is_potentially_hazardous_asteroid": false,
    "close_approach_data": [
        {
            "close_approach_date": "2019-10-08",
            "close_approach_date_full": "2019-Oct-08 06:31",
            "epoch_date_close_approach": 1570516260000,
            "relative_velocity": {
                "kilometers_per_second": "13.8727551263",
                "kilometers_per_hour": "49941.9184546948",
                "miles_per_hour": "31031.9659420296"
            },
            "miss_distance": {
                "astronomical": "0.0085669971",
                "lunar": "3.3325618719",
                "kilometers": "1281604.518456177",
                "miles": "796352.1204301626"
            },
            "orbiting_body": "Moon"
        },
        {
            "close_approach_date": "2019-10-08",
            "close_approach_date_full": "2019-Oct-08 11:40",
            "epoch_date_close_approach": 1570534800000,
            "relative_velocity": {
                "kilometers_per_second": "13.1093656728",
                "kilometers_per_hour": "47193.716422098",
                "miles_per_hour": "29324.3400734975"
            },
            "miss_distance": {
                "astronomical": "0.0089560798",
                "lunar": "3.4839150422",
                "kilometers": "1339810.461630026",
                "miles": "832519.6164093188"
            },
            "orbiting_body": "Earth"
        }
    ],
    "orbital_data": {
        "orbit_id": "1",
        "orbit_determination_date": "2019-10-03 23:42:03",
        "first_observation_date": "2019-10-03",
        "last_observation_date": "2019-10-04",
        "data_arc_in_days": 1,
        "observations_used": 12,
        "orbit_uncertainty": "8",
        "minimum_orbit_intersection": ".00878609",
        "jupiter_tisserand_invariant": "4.155",
        "epoch_osculation": "2458759.5",
        "eccentricity": ".5211087275917982",
        "semi_major_axis": "1.625251217261721",
        "inclination": "2.019193102229332",
        "ascending_node_longitude": "180.0685275873077",
        "orbital_period": "756.79660796156",
        "perihelion_distance": ".7783186234174445",
        "perihelion_argument": "263.7530333782904",
        "aphelion_distance": "2.472183811105998",
        "perihelion_time": "2458811.767331546479",
        "mean_anomaly": "335.1369930060678",
        "mean_motion": ".4756892356714759",
        "equinox": "J2000",
        "orbit_class": {
            "orbit_class_type": "APO",
            "orbit_class_description": "Near-Earth asteroid orbits which cross the Earth’s orbit similar to that of 1862 Apollo",
            "orbit_class_range": "a (semi-major axis) > 1.0 AU; q (perihelion) < 1.017 AU"
        }
    },
    "is_sentry_object": false
}